{"type":"FeatureCollection","metadata":{"version":"XW-RESEARCH-07","source":"OpenStreetMap polygons selected for interface research","snapshotAt":"2026-09-11T23:34:33Z","license":"ODbL 1.0","attribution":"© OpenStreetMap contributors","note":"选取真实空间对象用于展示流程，不表明这些对象被认定为低效、闲置或拟更新。演示业务台账另行标识。"},"features":[{"type":"Feature","id":"XW-R01","properties":{"name":"创意中央产业园","landuse":"commercial","osm_id":"way/685028159","label":"创意中央产业园","category":"research","kind":"commercial","unit_id":"XW-R01","research_type":"产业空间","story":"存量园区的利用效率与周边配套","boundary_source":"OSM 用地轮廓选作研究单元，不是地籍或官方更新单元","source_date":"2026-09-11T23:34:33Z","source_url":"https://www.openstreetmap.org/way/685028159"},"geometry":{"type":"Polygon","coordinates":[[[118.7791642,32.0899695],[118.7791588,32.0899013],[118.7791696,32.0897968],[118.7791749,32.0896786],[118.7791642,32.0894832],[118.7792554,32.0894605],[118.7794431,32.0894468],[118.7796041,32.0894559],[118.7797114,32.0894559],[118.7798186,32.0894559],[118.7798455,32.0892514],[118.7798777,32.0890469],[118.7798777,32.0889196],[118.7799152,32.0888378],[118.7800225,32.0887787],[118.7801459,32.0887787],[118.7803283,32.0887924],[118.7804424,32.0887984],[118.7805858,32.088806],[118.7806918,32.0888181],[118.7807337,32.0888229],[118.7808647,32.0888378],[118.7809452,32.0889151],[118.7809988,32.0890287],[118.7810632,32.0892287],[118.7811276,32.0893923],[118.7811329,32.089565],[118.781149,32.0897286],[118.781208,32.089865],[118.7814363,32.0899522],[118.7815299,32.0900558],[118.7815889,32.0902194],[118.7815996,32.0903422],[118.7815382,32.0904703],[118.7814738,32.090493],[118.7812939,32.0904921],[118.7810364,32.0905058],[118.780755,32.0905158],[118.7804516,32.0905058],[118.7801781,32.0905103],[118.7799045,32.0905012],[118.7796738,32.0904876],[118.7794592,32.0904876],[118.7794485,32.0904012],[118.7794861,32.0902604],[118.7794861,32.0901967],[118.779489,32.0899886],[118.7793788,32.0899831],[118.7791642,32.0899695]]]}},{"type":"Feature","id":"XW-R02","properties":{"name":"1912","name:en":"1912","landuse":"retail","osm_id":"way/857492847","label":"","category":"research","kind":"retail","unit_id":"XW-R02","research_type":"商业文旅","story":"文化消费场景与公共空间","boundary_source":"OSM 用地轮廓选作研究单元，不是地籍或官方更新单元","source_date":"2026-09-11T23:34:33Z","source_url":"https://www.openstreetmap.org/way/857492847"},"geometry":{"type":"Polygon","coordinates":[[[118.7905794,32.0450765],[118.7907389,32.0456459],[118.7912473,32.0479194],[118.7932596,32.0478767],[118.7932885,32.0483793],[118.7932518,32.0483802],[118.7913465,32.0484248],[118.7905687,32.0485112],[118.7899008,32.0454147],[118.7900162,32.0452578],[118.7905794,32.0450765]]]}},{"type":"Feature","id":"XW-R03","properties":{"name":"锁金四村","landuse":"residential","osm_id":"way/1079491117","label":"锁金四村","category":"research","kind":"residential","unit_id":"XW-R03","research_type":"居住社区","story":"社区服务与使用状况","boundary_source":"OSM 用地轮廓选作研究单元，不是地籍或官方更新单元","source_date":"2026-09-11T23:34:33Z","source_url":"https://www.openstreetmap.org/way/1079491117"},"geometry":{"type":"Polygon","coordinates":[[[118.8100481,32.0759938],[118.8106315,32.0739199],[118.8123535,32.0730471],[118.8138019,32.0733744],[118.8129543,32.074329],[118.8127665,32.0748472],[118.8126105,32.0765391],[118.8100481,32.0759938]]]}},{"type":"Feature","id":"XW-R04","properties":{"name":"红山机电花园","landuse":"residential","osm_id":"way/1022153766","label":"红山机电花园","category":"research","kind":"residential","unit_id":"XW-R04","research_type":"居住社区","story":"居住环境与设施补充","boundary_source":"OSM 用地轮廓选作研究单元，不是地籍或官方更新单元","source_date":"2026-09-11T23:34:33Z","source_url":"https://www.openstreetmap.org/way/1022153766"},"geometry":{"type":"Polygon","coordinates":[[[118.8050392,32.0948389],[118.8059995,32.0948844],[118.8060182,32.0951184],[118.8071769,32.095182],[118.8071099,32.096225],[118.8067505,32.0962136],[118.8067853,32.0964454],[118.8064983,32.0966613],[118.8062596,32.0972339],[118.8055381,32.0973588],[118.8055247,32.0966045],[118.8054335,32.096559],[118.8054013,32.0961773],[118.805235,32.0961023],[118.8049856,32.0960682],[118.8050083,32.0954071],[118.8050392,32.0948389]]]}},{"type":"Feature","id":"XW-R05","properties":{"name":"徐庄软件园研发一区","landuse":"commercial","osm_id":"way/1367615824","label":"徐庄软件园研发一区","category":"research","kind":"commercial","unit_id":"XW-R05","research_type":"产业空间","story":"研发载体与交通联系","boundary_source":"OSM 用地轮廓选作研究单元，不是地籍或官方更新单元","source_date":"2026-09-11T23:34:33Z","source_url":"https://www.openstreetmap.org/way/1367615824"},"geometry":{"type":"Polygon","coordinates":[[[118.8746915,32.0913741],[118.8747115,32.0913381],[118.8747305,32.0913201],[118.8747455,32.0913121],[118.8747746,32.0913081],[118.8748126,32.0913082],[118.8756165,32.0916021],[118.8769038,32.0920595],[118.8769369,32.0920795],[118.8769459,32.0920955],[118.8769539,32.0921295],[118.8769969,32.0925157],[118.8770189,32.0926487],[118.877073,32.0927948],[118.877171,32.0930429],[118.8772871,32.0932481],[118.8774133,32.0934343],[118.8776104,32.0936485],[118.8777906,32.0937947],[118.8782651,32.0940002],[118.8784763,32.0940814],[118.8786344,32.0941176],[118.8789848,32.0941639],[118.8790238,32.0941749],[118.8790639,32.094198],[118.8790879,32.094223],[118.8791089,32.094262],[118.8791109,32.094301],[118.8790587,32.0953092],[118.8790477,32.0953302],[118.8790287,32.0953582],[118.8790047,32.0953802],[118.8789727,32.0953901],[118.8789226,32.0953941],[118.8788886,32.0953891],[118.8788295,32.095356],[118.8775723,32.0947817],[118.8775503,32.0947587],[118.8775473,32.0947467],[118.8775513,32.0947207],[118.8776744,32.0944977],[118.8776134,32.0944667],[118.8776704,32.0943747],[118.8768746,32.0940218],[118.8767575,32.0939397],[118.8766074,32.0938015],[118.8764943,32.0936424],[118.8764602,32.0935733],[118.8763742,32.0933762],[118.8762931,32.0931531],[118.8762461,32.093026],[118.876221,32.092972],[118.87619,32.0929199],[118.8761029,32.0928118],[118.8759658,32.0926867],[118.8758817,32.0926326],[118.8757345,32.0925584],[118.8755804,32.0925122],[118.8753671,32.092439],[118.8751509,32.0923697],[118.8744411,32.092202],[118.8744281,32.0921959],[118.8744141,32.0921819],[118.8744081,32.0921689],[118.8744081,32.0921579],[118.8744121,32.0921329],[118.8746879,32.0913831],[118.8746915,32.0913741]]]}},{"type":"Feature","id":"XW-R06","properties":{"name":"福中高科技产业园","landuse":"commercial","osm_id":"way/1367615823","label":"福中高科技产业园","category":"research","kind":"commercial","unit_id":"XW-R06","research_type":"产业空间","story":"产业空间的功能适配","boundary_source":"OSM 用地轮廓选作研究单元，不是地籍或官方更新单元","source_date":"2026-09-11T23:34:33Z","source_url":"https://www.openstreetmap.org/way/1367615823"},"geometry":{"type":"Polygon","coordinates":[[[118.8740074,32.09452],[118.874003,32.0944984],[118.8739023,32.0935947],[118.8739023,32.0935677],[118.8739043,32.0935427],[118.8739083,32.0935187],[118.8739144,32.0934927],[118.874352,32.0922269],[118.874359,32.0922169],[118.874372,32.0922079],[118.874383,32.0922029],[118.8744041,32.0922019],[118.8750928,32.0923677],[118.8756775,32.0925563],[118.8759117,32.0926646],[118.8760288,32.0927547],[118.8761139,32.0928368],[118.876179,32.0929129],[118.876237,32.093022],[118.8762911,32.0931691],[118.8763772,32.0934092],[118.8764813,32.0936344],[118.8766044,32.0938075],[118.8767555,32.0939487],[118.8768736,32.0940278],[118.8776174,32.0943626],[118.8776294,32.0943667],[118.8776394,32.0943737],[118.8776464,32.0943827],[118.8776434,32.0943987],[118.8774612,32.0947036],[118.8774492,32.0947146],[118.8774372,32.0947195],[118.8774212,32.0947205],[118.8773971,32.0947165],[118.8766263,32.0945567],[118.8765903,32.0945547],[118.8765322,32.0945556],[118.8764742,32.0945576],[118.8763941,32.0945635],[118.8742056,32.0947682],[118.8741695,32.0947682],[118.8741345,32.0947572],[118.8741135,32.0947471],[118.8740905,32.0947321],[118.8740624,32.0947051],[118.8740074,32.09452]]]}},{"type":"Feature","id":"XW-R07","properties":{"name":"徐庄文化中心","landuse":"commercial","osm_id":"way/1418964177","label":"徐庄文化中心","category":"research","kind":"commercial","unit_id":"XW-R07","research_type":"商业文旅","story":"文化设施与复合利用","boundary_source":"OSM 用地轮廓选作研究单元，不是地籍或官方更新单元","source_date":"2026-09-11T23:34:33Z","source_url":"https://www.openstreetmap.org/way/1418964177"},"geometry":{"type":"Polygon","coordinates":[[[118.8848374,32.0867151],[118.8843592,32.0854204],[118.8843592,32.0854124],[118.8843682,32.0853934],[118.8843752,32.0853884],[118.8854881,32.0849031],[118.8855071,32.0849051],[118.8855231,32.0849141],[118.8859083,32.0856225],[118.8859173,32.0856446],[118.8860803,32.0863778],[118.8860683,32.0863948],[118.8860603,32.0863998],[118.8848715,32.0867301],[118.8848524,32.0867261],[118.8848374,32.0867151]]]}},{"type":"Feature","id":"XW-R08","properties":{"name":"东南大学(四牌楼校区)","name:en":"Southeast University (Sipailou Campus)","amenity":"university","osm_id":"relation/16272607","label":"东南大学四牌楼校区","category":"research","kind":"university","unit_id":"XW-R08","research_type":"校园周边","story":"校园与城市服务联系","boundary_source":"OSM 用地轮廓选作研究单元，不是地籍或官方更新单元","source_date":"2026-09-11T23:34:33Z","source_url":"https://www.openstreetmap.org/relation/16272607"},"geometry":{"type":"MultiPolygon","coordinates":[[[[118.7930058,32.058477],[118.7929377,32.0582154],[118.7930036,32.058204],[118.7928392,32.0575228],[118.79281,32.0574018],[118.7929088,32.0573847],[118.792864,32.0571989],[118.7927208,32.0572237],[118.7925837,32.0567395],[118.7927638,32.0567017],[118.792729,32.0565595],[118.7929818,32.0565085],[118.7929305,32.0563122],[118.7930778,32.0562801],[118.7931628,32.0562643],[118.7929788,32.0554381],[118.7928704,32.0549256],[118.7939018,32.0547509],[118.7938701,32.0545599],[118.7948017,32.0543635],[118.7950694,32.0553283],[118.794007,32.055526],[118.7940409,32.0556801],[118.793908,32.0557093],[118.794251,32.0570394],[118.7945631,32.0581492],[118.7935627,32.0583557],[118.7930058,32.058477]]],[[[118.789665,32.0551013],[118.7896007,32.0551115],[118.7890355,32.0552011],[118.7890025,32.0552063],[118.7889771,32.0552103],[118.788639,32.0552646],[118.7886221,32.0551793],[118.7885836,32.054973],[118.7885619,32.0548576],[118.7885366,32.0547232],[118.7883549,32.0547477],[118.7882938,32.0544615],[118.7890856,32.0543447],[118.7890102,32.0540513],[118.7900425,32.0538497],[118.7900805,32.0540669],[118.7901407,32.0541118],[118.7901971,32.0544436],[118.7897383,32.0545223],[118.7897948,32.0547613],[118.7896067,32.0547955],[118.789665,32.0551013]]],[[[118.7855284,32.0573039],[118.7856059,32.0584804],[118.7829832,32.0586625],[118.7829221,32.0576336],[118.7827624,32.0576297],[118.7827361,32.0571156],[118.7827431,32.0571166],[118.7830725,32.0571099],[118.7830577,32.0568782],[118.7834894,32.056856],[118.7835162,32.0571338],[118.7840508,32.0571087],[118.7840171,32.0568394],[118.7841837,32.056832],[118.7840879,32.0560671],[118.7853764,32.0559104],[118.7855284,32.0573039]]],[[[118.7858616,32.0598819],[118.785825,32.0593479],[118.785801,32.0589562],[118.7857624,32.0579769],[118.7857643,32.0573186],[118.7870068,32.057205],[118.7868017,32.055719],[118.7885855,32.0554315],[118.7886217,32.0554551],[118.7888608,32.0554401],[118.7890506,32.0554261],[118.7890985,32.055354],[118.7904535,32.0551299],[118.7907488,32.0567387],[118.790775,32.0572217],[118.7908675,32.0587727],[118.7908393,32.0588706],[118.7907883,32.0589958],[118.7906917,32.0592131],[118.7903771,32.0594801],[118.7900564,32.0596884],[118.789908,32.0597016],[118.7895328,32.0597322],[118.7858616,32.0598819]]],[[[118.7906746,32.0548849],[118.7905623,32.0548223],[118.790469,32.0539075],[118.7911191,32.0538005],[118.7913797,32.0547591],[118.7906746,32.0548849]]]]}}]}