{"type":"FeatureCollection","metadata":{"version":"NANJING-RESEARCH-23","source":"OpenStreetMap polygons selected for interface research","snapshotAt":"2026-09-11T23:34:33Z","license":"ODbL 1.0","attribution":"© OpenStreetMap contributors","note":"20 个真实轮廓上的预设研究情景，不代表被认定为低效、闲置或已列入更新计划。经营、空置与质量数据缺失时仍保留未知或明确标为模拟。","districts":["玄武区","鼓楼区","秦淮区"],"count":20},"features":[{"type":"Feature","id":"XW-R01","properties":{"name":"创意中央产业园","landuse":"commercial","osm_id":"way/685028159","label":"创意中央产业园","category":"research","kind":"commercial","unit_id":"XW-R01","research_type":"产业空间","story":"存量园区的利用效率与周边配套","boundary_source":"OSM 用地轮廓选作研究单元，不是地籍或官方更新单元","source_date":"2026-09-11T23:34:33Z","source_url":"https://www.openstreetmap.org/way/685028159","district":"玄武区"},"geometry":{"type":"Polygon","coordinates":[[[118.7791642,32.0899695],[118.7791588,32.0899013],[118.7791696,32.0897968],[118.7791749,32.0896786],[118.7791642,32.0894832],[118.7792554,32.0894605],[118.7794431,32.0894468],[118.7796041,32.0894559],[118.7797114,32.0894559],[118.7798186,32.0894559],[118.7798455,32.0892514],[118.7798777,32.0890469],[118.7798777,32.0889196],[118.7799152,32.0888378],[118.7800225,32.0887787],[118.7801459,32.0887787],[118.7803283,32.0887924],[118.7804424,32.0887984],[118.7805858,32.088806],[118.7806918,32.0888181],[118.7807337,32.0888229],[118.7808647,32.0888378],[118.7809452,32.0889151],[118.7809988,32.0890287],[118.7810632,32.0892287],[118.7811276,32.0893923],[118.7811329,32.089565],[118.781149,32.0897286],[118.781208,32.089865],[118.7814363,32.0899522],[118.7815299,32.0900558],[118.7815889,32.0902194],[118.7815996,32.0903422],[118.7815382,32.0904703],[118.7814738,32.090493],[118.7812939,32.0904921],[118.7810364,32.0905058],[118.780755,32.0905158],[118.7804516,32.0905058],[118.7801781,32.0905103],[118.7799045,32.0905012],[118.7796738,32.0904876],[118.7794592,32.0904876],[118.7794485,32.0904012],[118.7794861,32.0902604],[118.7794861,32.0901967],[118.779489,32.0899886],[118.7793788,32.0899831],[118.7791642,32.0899695]]]}},{"type":"Feature","id":"XW-R02","properties":{"name":"1912","name:en":"1912","landuse":"retail","osm_id":"way/857492847","label":"","category":"research","kind":"retail","unit_id":"XW-R02","research_type":"商业文旅","story":"文化消费场景与公共空间","boundary_source":"OSM 用地轮廓选作研究单元，不是地籍或官方更新单元","source_date":"2026-09-11T23:34:33Z","source_url":"https://www.openstreetmap.org/way/857492847","district":"玄武区"},"geometry":{"type":"Polygon","coordinates":[[[118.7905794,32.0450765],[118.7907389,32.0456459],[118.7912473,32.0479194],[118.7932596,32.0478767],[118.7932885,32.0483793],[118.7932518,32.0483802],[118.7913465,32.0484248],[118.7905687,32.0485112],[118.7899008,32.0454147],[118.7900162,32.0452578],[118.7905794,32.0450765]]]}},{"type":"Feature","id":"XW-R03","properties":{"name":"锁金四村","landuse":"residential","osm_id":"way/1079491117","label":"锁金四村","category":"research","kind":"residential","unit_id":"XW-R03","research_type":"居住社区","story":"社区服务与使用状况","boundary_source":"OSM 用地轮廓选作研究单元，不是地籍或官方更新单元","source_date":"2026-09-11T23:34:33Z","source_url":"https://www.openstreetmap.org/way/1079491117","district":"玄武区"},"geometry":{"type":"Polygon","coordinates":[[[118.8100481,32.0759938],[118.8106315,32.0739199],[118.8123535,32.0730471],[118.8138019,32.0733744],[118.8129543,32.074329],[118.8127665,32.0748472],[118.8126105,32.0765391],[118.8100481,32.0759938]]]}},{"type":"Feature","id":"XW-R04","properties":{"name":"红山机电花园","landuse":"residential","osm_id":"way/1022153766","label":"红山机电花园","category":"research","kind":"residential","unit_id":"XW-R04","research_type":"居住社区","story":"居住环境与设施补充","boundary_source":"OSM 用地轮廓选作研究单元，不是地籍或官方更新单元","source_date":"2026-09-11T23:34:33Z","source_url":"https://www.openstreetmap.org/way/1022153766","district":"玄武区"},"geometry":{"type":"Polygon","coordinates":[[[118.8050392,32.0948389],[118.8059995,32.0948844],[118.8060182,32.0951184],[118.8071769,32.095182],[118.8071099,32.096225],[118.8067505,32.0962136],[118.8067853,32.0964454],[118.8064983,32.0966613],[118.8062596,32.0972339],[118.8055381,32.0973588],[118.8055247,32.0966045],[118.8054335,32.096559],[118.8054013,32.0961773],[118.805235,32.0961023],[118.8049856,32.0960682],[118.8050083,32.0954071],[118.8050392,32.0948389]]]}},{"type":"Feature","id":"XW-R05","properties":{"name":"徐庄软件园研发一区","landuse":"commercial","osm_id":"way/1367615824","label":"徐庄软件园研发一区","category":"research","kind":"commercial","unit_id":"XW-R05","research_type":"产业空间","story":"研发载体与交通联系","boundary_source":"OSM 用地轮廓选作研究单元，不是地籍或官方更新单元","source_date":"2026-09-11T23:34:33Z","source_url":"https://www.openstreetmap.org/way/1367615824","district":"玄武区"},"geometry":{"type":"Polygon","coordinates":[[[118.8746915,32.0913741],[118.8747115,32.0913381],[118.8747305,32.0913201],[118.8747455,32.0913121],[118.8747746,32.0913081],[118.8748126,32.0913082],[118.8756165,32.0916021],[118.8769038,32.0920595],[118.8769369,32.0920795],[118.8769459,32.0920955],[118.8769539,32.0921295],[118.8769969,32.0925157],[118.8770189,32.0926487],[118.877073,32.0927948],[118.877171,32.0930429],[118.8772871,32.0932481],[118.8774133,32.0934343],[118.8776104,32.0936485],[118.8777906,32.0937947],[118.8782651,32.0940002],[118.8784763,32.0940814],[118.8786344,32.0941176],[118.8789848,32.0941639],[118.8790238,32.0941749],[118.8790639,32.094198],[118.8790879,32.094223],[118.8791089,32.094262],[118.8791109,32.094301],[118.8790587,32.0953092],[118.8790477,32.0953302],[118.8790287,32.0953582],[118.8790047,32.0953802],[118.8789727,32.0953901],[118.8789226,32.0953941],[118.8788886,32.0953891],[118.8788295,32.095356],[118.8775723,32.0947817],[118.8775503,32.0947587],[118.8775473,32.0947467],[118.8775513,32.0947207],[118.8776744,32.0944977],[118.8776134,32.0944667],[118.8776704,32.0943747],[118.8768746,32.0940218],[118.8767575,32.0939397],[118.8766074,32.0938015],[118.8764943,32.0936424],[118.8764602,32.0935733],[118.8763742,32.0933762],[118.8762931,32.0931531],[118.8762461,32.093026],[118.876221,32.092972],[118.87619,32.0929199],[118.8761029,32.0928118],[118.8759658,32.0926867],[118.8758817,32.0926326],[118.8757345,32.0925584],[118.8755804,32.0925122],[118.8753671,32.092439],[118.8751509,32.0923697],[118.8744411,32.092202],[118.8744281,32.0921959],[118.8744141,32.0921819],[118.8744081,32.0921689],[118.8744081,32.0921579],[118.8744121,32.0921329],[118.8746879,32.0913831],[118.8746915,32.0913741]]]}},{"type":"Feature","id":"XW-R06","properties":{"name":"福中高科技产业园","landuse":"commercial","osm_id":"way/1367615823","label":"福中高科技产业园","category":"research","kind":"commercial","unit_id":"XW-R06","research_type":"产业空间","story":"产业空间的功能适配","boundary_source":"OSM 用地轮廓选作研究单元，不是地籍或官方更新单元","source_date":"2026-09-11T23:34:33Z","source_url":"https://www.openstreetmap.org/way/1367615823","district":"玄武区"},"geometry":{"type":"Polygon","coordinates":[[[118.8740074,32.09452],[118.874003,32.0944984],[118.8739023,32.0935947],[118.8739023,32.0935677],[118.8739043,32.0935427],[118.8739083,32.0935187],[118.8739144,32.0934927],[118.874352,32.0922269],[118.874359,32.0922169],[118.874372,32.0922079],[118.874383,32.0922029],[118.8744041,32.0922019],[118.8750928,32.0923677],[118.8756775,32.0925563],[118.8759117,32.0926646],[118.8760288,32.0927547],[118.8761139,32.0928368],[118.876179,32.0929129],[118.876237,32.093022],[118.8762911,32.0931691],[118.8763772,32.0934092],[118.8764813,32.0936344],[118.8766044,32.0938075],[118.8767555,32.0939487],[118.8768736,32.0940278],[118.8776174,32.0943626],[118.8776294,32.0943667],[118.8776394,32.0943737],[118.8776464,32.0943827],[118.8776434,32.0943987],[118.8774612,32.0947036],[118.8774492,32.0947146],[118.8774372,32.0947195],[118.8774212,32.0947205],[118.8773971,32.0947165],[118.8766263,32.0945567],[118.8765903,32.0945547],[118.8765322,32.0945556],[118.8764742,32.0945576],[118.8763941,32.0945635],[118.8742056,32.0947682],[118.8741695,32.0947682],[118.8741345,32.0947572],[118.8741135,32.0947471],[118.8740905,32.0947321],[118.8740624,32.0947051],[118.8740074,32.09452]]]}},{"type":"Feature","id":"XW-R07","properties":{"name":"徐庄文化中心","landuse":"commercial","osm_id":"way/1418964177","label":"徐庄文化中心","category":"research","kind":"commercial","unit_id":"XW-R07","research_type":"商业文旅","story":"文化设施与复合利用","boundary_source":"OSM 用地轮廓选作研究单元，不是地籍或官方更新单元","source_date":"2026-09-11T23:34:33Z","source_url":"https://www.openstreetmap.org/way/1418964177","district":"玄武区"},"geometry":{"type":"Polygon","coordinates":[[[118.8848374,32.0867151],[118.8843592,32.0854204],[118.8843592,32.0854124],[118.8843682,32.0853934],[118.8843752,32.0853884],[118.8854881,32.0849031],[118.8855071,32.0849051],[118.8855231,32.0849141],[118.8859083,32.0856225],[118.8859173,32.0856446],[118.8860803,32.0863778],[118.8860683,32.0863948],[118.8860603,32.0863998],[118.8848715,32.0867301],[118.8848524,32.0867261],[118.8848374,32.0867151]]]}},{"type":"Feature","id":"XW-R08","properties":{"name":"东南大学(四牌楼校区)","name:en":"Southeast University (Sipailou Campus)","amenity":"university","osm_id":"relation/16272607","label":"东南大学四牌楼校区","category":"research","kind":"university","unit_id":"XW-R08","research_type":"校园周边","story":"校园与城市服务联系","boundary_source":"OSM 用地轮廓选作研究单元，不是地籍或官方更新单元","source_date":"2026-09-11T23:34:33Z","source_url":"https://www.openstreetmap.org/relation/16272607","district":"玄武区"},"geometry":{"type":"MultiPolygon","coordinates":[[[[118.7930058,32.058477],[118.7929377,32.0582154],[118.7930036,32.058204],[118.7928392,32.0575228],[118.79281,32.0574018],[118.7929088,32.0573847],[118.792864,32.0571989],[118.7927208,32.0572237],[118.7925837,32.0567395],[118.7927638,32.0567017],[118.792729,32.0565595],[118.7929818,32.0565085],[118.7929305,32.0563122],[118.7930778,32.0562801],[118.7931628,32.0562643],[118.7929788,32.0554381],[118.7928704,32.0549256],[118.7939018,32.0547509],[118.7938701,32.0545599],[118.7948017,32.0543635],[118.7950694,32.0553283],[118.794007,32.055526],[118.7940409,32.0556801],[118.793908,32.0557093],[118.794251,32.0570394],[118.7945631,32.0581492],[118.7935627,32.0583557],[118.7930058,32.058477]]],[[[118.789665,32.0551013],[118.7896007,32.0551115],[118.7890355,32.0552011],[118.7890025,32.0552063],[118.7889771,32.0552103],[118.788639,32.0552646],[118.7886221,32.0551793],[118.7885836,32.054973],[118.7885619,32.0548576],[118.7885366,32.0547232],[118.7883549,32.0547477],[118.7882938,32.0544615],[118.7890856,32.0543447],[118.7890102,32.0540513],[118.7900425,32.0538497],[118.7900805,32.0540669],[118.7901407,32.0541118],[118.7901971,32.0544436],[118.7897383,32.0545223],[118.7897948,32.0547613],[118.7896067,32.0547955],[118.789665,32.0551013]]],[[[118.7855284,32.0573039],[118.7856059,32.0584804],[118.7829832,32.0586625],[118.7829221,32.0576336],[118.7827624,32.0576297],[118.7827361,32.0571156],[118.7827431,32.0571166],[118.7830725,32.0571099],[118.7830577,32.0568782],[118.7834894,32.056856],[118.7835162,32.0571338],[118.7840508,32.0571087],[118.7840171,32.0568394],[118.7841837,32.056832],[118.7840879,32.0560671],[118.7853764,32.0559104],[118.7855284,32.0573039]]],[[[118.7858616,32.0598819],[118.785825,32.0593479],[118.785801,32.0589562],[118.7857624,32.0579769],[118.7857643,32.0573186],[118.7870068,32.057205],[118.7868017,32.055719],[118.7885855,32.0554315],[118.7886217,32.0554551],[118.7888608,32.0554401],[118.7890506,32.0554261],[118.7890985,32.055354],[118.7904535,32.0551299],[118.7907488,32.0567387],[118.790775,32.0572217],[118.7908675,32.0587727],[118.7908393,32.0588706],[118.7907883,32.0589958],[118.7906917,32.0592131],[118.7903771,32.0594801],[118.7900564,32.0596884],[118.789908,32.0597016],[118.7895328,32.0597322],[118.7858616,32.0598819]]],[[[118.7906746,32.0548849],[118.7905623,32.0548223],[118.790469,32.0539075],[118.7911191,32.0538005],[118.7913797,32.0547591],[118.7906746,32.0548849]]]]}},{"type":"Feature","id":"GL-R01","properties":{"name":"清河新寓二村","landuse":"residential","osm_id":"way/547612793","label":"清河新寓二村","category":"research","kind":"residential","unit_id":"GL-R01","district":"鼓楼区","research_type":"居住社区","story":"清河新寓二村：社区公共服务与慢行联系","study_question":"核对社区日常服务的实际步行路径，比较微更新与设施补充。","case_status":"预设研究情景，非官方更新项目","boundary_source":"OSM 用地轮廓选作研究单元，不是地籍或官方更新单元","source_date":"2026-09-14","source_url":"https://www.openstreetmap.org/way/547612793"},"geometry":{"type":"Polygon","coordinates":[[[118.7238436,32.0452165],[118.7238049,32.0442872],[118.7237919,32.0439744],[118.7237358,32.0430243],[118.7248099,32.0429689],[118.7248346,32.0432066],[118.7250894,32.0433686],[118.7252168,32.0451505],[118.7238436,32.0452165]]]}},{"type":"Feature","id":"GL-R02","properties":{"name":"龙凤花园","landuse":"residential","osm_id":"way/783604432","label":"龙凤花园","category":"research","kind":"residential","unit_id":"GL-R02","district":"鼓楼区","research_type":"居住社区","story":"龙凤花园：居住环境与共享空间","study_question":"调查公共空间使用时段、停车冲突及适老出行需求。","case_status":"预设研究情景，非官方更新项目","boundary_source":"OSM 用地轮廓选作研究单元，不是地籍或官方更新单元","source_date":"2026-09-14","source_url":"https://www.openstreetmap.org/way/783604432"},"geometry":{"type":"Polygon","coordinates":[[[118.739096,32.0535529],[118.7388872,32.0514288],[118.7422548,32.0513956],[118.7423201,32.0536635],[118.7417719,32.0536635],[118.7417588,32.0532542],[118.7415239,32.0532542],[118.7415239,32.0531214],[118.7413411,32.0531104],[118.7413672,32.0536082],[118.739096,32.0535529]]]}},{"type":"Feature","id":"GL-R03","properties":{"name":"南京西站","landuse":"railway","osm_id":"way/91829529","label":"南京西站","category":"research","kind":"railway","unit_id":"GL-R03","district":"鼓楼区","research_type":"产业空间","story":"南京西站：铁路空间与周边城市联系","study_question":"在权属、运营和历史要素核查后，比较保留利用与公共通达方案。","case_status":"预设研究情景，非官方更新项目","boundary_source":"OSM 用地轮廓选作研究单元，不是地籍或官方更新单元","source_date":"2026-09-14","source_url":"https://www.openstreetmap.org/way/91829529"},"geometry":{"type":"Polygon","coordinates":[[[118.7468484,32.1007959],[118.7462552,32.1010337],[118.7459315,32.1012429],[118.7456528,32.1014903],[118.7443224,32.1025799],[118.7428999,32.1037553],[118.7418929,32.1046573],[118.7412099,32.1040076],[118.7409877,32.1041634],[118.7408308,32.103965],[118.7407438,32.1040616],[118.7395175,32.1048809],[118.7393719,32.104516],[118.7392281,32.1042237],[118.739106,32.1039771],[118.738823,32.1033239],[118.7385779,32.1028457],[118.7384326,32.1024776],[118.7383676,32.1024803],[118.7379572,32.1025257],[118.7379009,32.1022349],[118.7383488,32.1021781],[118.7382925,32.1016851],[118.7382315,32.1013882],[118.7391687,32.1010811],[118.7384974,32.1000811],[118.7393088,32.099564],[118.7381456,32.0987039],[118.7377139,32.0984182],[118.7372232,32.0980916],[118.7364904,32.0976084],[118.7365436,32.0975452],[118.7371019,32.0968813],[118.7371619,32.0968059],[118.739237,32.0980628],[118.7400647,32.0988031],[118.7412046,32.0993702],[118.7429019,32.099437],[118.7446432,32.0994584],[118.7466731,32.0998233],[118.7486462,32.1000896],[118.7486317,32.1004772],[118.7475496,32.1006146],[118.7468484,32.1007959]]]}},{"type":"Feature","id":"GL-R04","properties":{"name":"南大苏富特科技创新园","landuse":"commercial","osm_id":"way/1355383539","label":"南大苏富特科技创新园","category":"research","kind":"commercial","unit_id":"GL-R04","district":"鼓楼区","research_type":"产业空间","story":"南大苏富特科技创新园：载体利用与服务配套","study_question":"核对楼宇实际使用与租赁需求，比较存量空间的分期利用方式。","case_status":"预设研究情景，非官方更新项目","boundary_source":"OSM 用地轮廓选作研究单元，不是地籍或官方更新单元","source_date":"2026-09-14","source_url":"https://www.openstreetmap.org/way/1355383539"},"geometry":{"type":"Polygon","coordinates":[[[118.7219974,32.0408241],[118.7216554,32.0403421],[118.7224624,32.0400407],[118.7245083,32.0397408],[118.7246392,32.0404796],[118.7226637,32.0405343],[118.7219974,32.0408241]]]}},{"type":"Feature","id":"GL-R05","properties":{"name":"苏宁慧谷","landuse":"commercial","osm_id":"way/318061162","label":"苏宁慧谷","category":"research","kind":"commercial","unit_id":"GL-R05","district":"鼓楼区","research_type":"商业文旅","story":"苏宁慧谷：商务空间与滨水联系","study_question":"调查通勤、公共空间和服务需求，比较空间组织优化与运营调整。","case_status":"预设研究情景，非官方更新项目","boundary_source":"OSM 用地轮廓选作研究单元，不是地籍或官方更新单元","source_date":"2026-09-14","source_url":"https://www.openstreetmap.org/way/318061162"},"geometry":{"type":"Polygon","coordinates":[[[118.7172569,32.0373202],[118.7168054,32.0373223],[118.7167393,32.0372163],[118.716699,32.0371517],[118.7150066,32.0344488],[118.7180117,32.0332254],[118.7187572,32.032914],[118.7189079,32.0331995],[118.719235,32.0345319],[118.7196424,32.0348923],[118.7207884,32.0357345],[118.7191695,32.0364614],[118.7172569,32.0373202]]]}},{"type":"Feature","id":"GL-R06","properties":{"name":"河海大学(西康路校区)","name:en":"Hohai University (Xikanglu Campus)","amenity":"university","osm_id":"way/165476764","label":"河海大学西康路校区","category":"research","kind":"university","unit_id":"GL-R06","district":"鼓楼区","research_type":"校园周边","story":"河海大学西康路校区：校园与街区联系","study_question":"研究校园边界、公共通行与服务共享条件，不预设开放或建设权限。","case_status":"预设研究情景，非官方更新项目","boundary_source":"OSM 用地轮廓选作研究单元，不是地籍或官方更新单元","source_date":"2026-09-14","source_url":"https://www.openstreetmap.org/way/165476764"},"geometry":{"type":"Polygon","coordinates":[[[118.7512632,32.0607187],[118.7512589,32.0582409],[118.7520585,32.0539101],[118.753023,32.0538962],[118.7540283,32.0538818],[118.7542192,32.0545038],[118.7542493,32.0555077],[118.7544007,32.0558676],[118.7548251,32.056155],[118.755334,32.0565104],[118.7558551,32.0565006],[118.7564482,32.0562486],[118.756735,32.0564485],[118.7580223,32.0561368],[118.7585566,32.0570779],[118.7590309,32.0588344],[118.7589665,32.0601368],[118.7589879,32.0609733],[118.7586875,32.0610824],[118.7555762,32.060064],[118.7537308,32.0598094],[118.7531686,32.0605687],[118.7525506,32.0604459],[118.7521386,32.0608051],[118.7512632,32.0607187]]]}},{"type":"Feature","id":"QH-R01","properties":{"name":"1865产业园区","leisure":"hackerspace","district_name":"秦淮区","source_date":"2026-09-14","osm_id":"way/587964567","label":"产业园区","category":"research","kind":"hackerspace","unit_id":"QH-R01","district":"秦淮区","research_type":"产业空间","story":"1865产业园区：工业遗产与复合利用","study_question":"核对保护要求、既有业态与公共空间承载，比较渐进改善路径。","case_status":"预设研究情景，非官方更新项目","boundary_source":"OSM 用地轮廓选作研究单元，不是地籍或官方更新单元","source_url":"https://www.openstreetmap.org/way/587964567"},"geometry":{"type":"Polygon","coordinates":[[[118.7804569,32.0117355],[118.7803067,32.0113807],[118.7801565,32.0109349],[118.7799741,32.01048],[118.7797381,32.0100888],[118.7799956,32.0099615],[118.7798346,32.0096067],[118.7796201,32.0091063],[118.7794162,32.0086787],[118.7790836,32.0083512],[118.7790043,32.0080236],[118.7803582,32.0079454],[118.7812154,32.0079117],[118.7818262,32.0078657],[118.7827111,32.0078134],[118.7828425,32.0078029],[118.7829417,32.0079231],[118.7844695,32.0078169],[118.7855346,32.0077565],[118.7860653,32.0077248],[118.7863522,32.0077124],[118.7863714,32.0076584],[118.7865385,32.0076501],[118.7866386,32.0076495],[118.7866757,32.0076736],[118.7866964,32.0077882],[118.7867159,32.0083938],[118.7868807,32.0088953],[118.7863238,32.0089537],[118.7853279,32.0090572],[118.7844497,32.0092779],[118.783739,32.0095982],[118.7829652,32.0105173],[118.7827865,32.010723],[118.7825383,32.0109258],[118.7823452,32.0111714],[118.7816264,32.0114444],[118.7813045,32.011599],[118.7811436,32.0116718],[118.7810363,32.01169],[118.7809504,32.0116991],[118.7808002,32.0117082],[118.78065,32.0117264],[118.7804569,32.0117355]]]}},{"type":"Feature","id":"QH-R02","properties":{"name":"熊猫通信工业园","landuse":"industrial","district_name":"秦淮区","source_date":"2026-09-14","osm_id":"relation/2137425","label":"熊猫通信工业园","category":"research","kind":"industrial","unit_id":"QH-R02","district":"秦淮区","research_type":"产业空间","story":"熊猫通信工业园：产业载体与功能适配","study_question":"先调查企业使用、设施条件和经营需求，再讨论空间调整。","case_status":"预设研究情景，非官方更新项目","boundary_source":"OSM 用地轮廓选作研究单元，不是地籍或官方更新单元","source_url":"https://www.openstreetmap.org/relation/2137425"},"geometry":{"type":"Polygon","coordinates":[[[118.8493218,32.0222635],[118.8508606,32.0224589],[118.8508955,32.0242504],[118.8506593,32.0242509],[118.8506797,32.0249663],[118.8481378,32.0249273],[118.848148,32.0237392],[118.8482401,32.0236828],[118.8482605,32.0235137],[118.8482503,32.0233836],[118.848148,32.0232969],[118.8482043,32.0221911],[118.8493218,32.0222635]]]}},{"type":"Feature","id":"QH-R03","properties":{"name":"万达新村","landuse":"residential","district_name":"秦淮区","source_date":"2026-09-14","osm_id":"relation/2137443","label":"万达新村","category":"research","kind":"residential","unit_id":"QH-R03","district":"秦淮区","research_type":"居住社区","story":"万达新村：社区配套与环境改善","study_question":"核对服务可达性、建筑条件及居民需求，形成轻重缓急清单。","case_status":"预设研究情景，非官方更新项目","boundary_source":"OSM 用地轮廓选作研究单元，不是地籍或官方更新单元","source_url":"https://www.openstreetmap.org/relation/2137443"},"geometry":{"type":"Polygon","coordinates":[[[118.8482078,32.0203303],[118.8482238,32.0195389],[118.8494643,32.0196708],[118.8511144,32.0200616],[118.8511039,32.0203811],[118.8482078,32.0203303]]]}},{"type":"Feature","id":"QH-R04","properties":{"name":"康美里","landuse":"residential","district_name":"秦淮区","source_date":"2026-09-14","osm_id":"way/1021848763","label":"康美里","category":"research","kind":"residential","unit_id":"QH-R04","district":"秦淮区","research_type":"居住社区","story":"康美里：生活服务与适老更新","study_question":"结合步行实测和居民访谈，比较公共空间与服务补充的优先顺序。","case_status":"预设研究情景，非官方更新项目","boundary_source":"OSM 用地轮廓选作研究单元，不是地籍或官方更新单元","source_url":"https://www.openstreetmap.org/way/1021848763"},"geometry":{"type":"Polygon","coordinates":[[[118.8010617,32.0079745],[118.80109,32.0078095],[118.8011784,32.0077794],[118.8014049,32.0077464],[118.8028303,32.0076074],[118.8027889,32.0078053],[118.8035493,32.0079566],[118.8037028,32.008543],[118.8010617,32.0079745]]]}},{"type":"Feature","id":"QH-R05","properties":{"name":"夫子庙","name:en":"Fuzimiao","leisure":"park","tourism":"attraction","district_name":"秦淮区","source_date":"2026-09-14","osm_id":"way/590937998","label":"夫子庙","category":"research","kind":"park","unit_id":"QH-R05","district":"秦淮区","research_type":"商业文旅","story":"夫子庙：历史空间与日常使用","study_question":"分别观察居民、游客与商户需求，核对保护要求和高峰承载。","case_status":"预设研究情景，非官方更新项目","boundary_source":"OSM 用地轮廓选作研究单元，不是地籍或官方更新单元","source_url":"https://www.openstreetmap.org/way/590937998"},"geometry":{"type":"Polygon","coordinates":[[[118.7821036,32.0200069],[118.7821948,32.0200411],[118.7823337,32.0200702],[118.7824678,32.0201066],[118.7826073,32.0201407],[118.7828139,32.0201998],[118.78297,32.0202594],[118.7831604,32.020314],[118.7832435,32.0203321],[118.7833342,32.0203271],[118.7834125,32.0202298],[118.7834984,32.0201388],[118.7838309,32.0198682],[118.7840026,32.0199797],[118.7839972,32.0198659],[118.7840509,32.0197227],[118.784058,32.0197506],[118.7841389,32.0200702],[118.7842172,32.0202093],[118.7844023,32.0203503],[118.7846785,32.0205232],[118.7849333,32.0206915],[118.7857139,32.0211713],[118.7860352,32.0213459],[118.7863978,32.0216307],[118.7866628,32.0217621],[118.7868431,32.0218626],[118.7869799,32.0219331],[118.7870523,32.021949],[118.7871086,32.0219104],[118.7872669,32.0218604],[118.7874514,32.0217985],[118.7875887,32.0217489],[118.7877175,32.0217125],[118.7877818,32.0216784],[118.7879642,32.0215875],[118.7880796,32.0215533],[118.7886294,32.0213896],[118.7887501,32.0212896],[118.7890398,32.0212509],[118.7891036,32.021396],[118.7891766,32.0215829],[118.7891868,32.021612],[118.7889969,32.021658],[118.7888172,32.0217353],[118.7887501,32.0218058],[118.788667,32.0218535],[118.7885758,32.0219036],[118.7885114,32.0219559],[118.7883719,32.0220286],[118.7882566,32.0221219],[118.7881708,32.0222288],[118.7881091,32.0223766],[118.788093,32.0224812],[118.7880549,32.0225717],[118.7879857,32.0226677],[118.7880254,32.0227764],[118.7880045,32.0229201],[118.7878999,32.0230975],[118.7878248,32.0232225],[118.78802,32.0233699],[118.7881305,32.0234431],[118.7883585,32.0237046],[118.7886959,32.0238406],[118.7890613,32.0240639],[118.7893831,32.0242459],[118.7895489,32.0243409],[118.7896937,32.0244273],[118.7896991,32.0246183],[118.7895274,32.0249776],[118.7894636,32.0252055],[118.7893885,32.0253556],[118.7893021,32.0255689],[118.7892324,32.0256735],[118.788895,32.0256282],[118.7889164,32.0254374],[118.7889915,32.0252237],[118.7889915,32.0250645],[118.7889164,32.0249735],[118.7886697,32.0248871],[118.7884604,32.0248144],[118.7881171,32.0246643],[118.7879562,32.0245779],[118.7877362,32.0244642],[118.7875056,32.0242868],[118.7872905,32.0241499],[118.7871569,32.0240912],[118.787114,32.0240457],[118.7868297,32.0239184],[118.7867165,32.0240407],[118.7865293,32.0242913],[118.7862986,32.0245506],[118.7861961,32.0245865],[118.786025,32.0245187],[118.7857401,32.0244182],[118.7845122,32.0239775],[118.7844264,32.0239275],[118.7842816,32.0239138],[118.7841528,32.0242368],[118.7839919,32.0245779],[118.7838846,32.0247279],[118.7835949,32.0247279],[118.7835515,32.0250049],[118.7833482,32.0250008],[118.7829136,32.0249372],[118.7826615,32.0249144],[118.7824791,32.0248826],[118.7822967,32.0248917],[118.7818568,32.0249008],[118.7817066,32.0248917],[118.7815511,32.0248871],[118.7814647,32.0248871],[118.7813204,32.0248871],[118.7812828,32.0247689],[118.7812077,32.0244323],[118.7811702,32.0243095],[118.7810731,32.0241181],[118.7810575,32.0240003],[118.7810254,32.0239229],[118.7809824,32.0236955],[118.7809717,32.0236091],[118.7807303,32.0237092],[118.7801075,32.0238725],[118.7796362,32.0239593],[118.7793573,32.0240275],[118.7792768,32.0238274],[118.7791856,32.0236637],[118.7790837,32.0233453],[118.7789871,32.0229724],[118.7788906,32.0227495],[118.7788638,32.0225676],[118.778896,32.022372],[118.7791642,32.0222674],[118.7795872,32.0221942],[118.7798324,32.0221159],[118.779942,32.0220809],[118.7802153,32.02199],[118.7805479,32.0218808],[118.7809005,32.0218002],[118.7810561,32.0217513],[118.781417,32.0216352],[118.7818992,32.0215074],[118.7822157,32.0214346],[118.7822959,32.0213672],[118.7823611,32.0213123],[118.7823986,32.0211895],[118.7822538,32.0210121],[118.7820119,32.0208798],[118.7817335,32.0207074],[118.7812077,32.0204709],[118.7808269,32.0202798],[118.7805747,32.0201934],[118.7804889,32.0201161],[118.7803347,32.019709],[118.7803055,32.0195526],[118.7801617,32.0192337],[118.7799742,32.018979],[118.7797167,32.0183968],[118.7796094,32.0181239],[118.779529,32.0177783],[118.7794539,32.0174235],[118.7793036,32.0169368],[118.77925,32.0167731],[118.7791427,32.0164046],[118.7790891,32.0162864],[118.7789496,32.0160362],[118.7787082,32.0158042],[118.7782683,32.0155904],[118.7779518,32.0155541],[118.7775012,32.0155404],[118.7775066,32.0154631],[118.7774637,32.0151219],[118.777748,32.0150628],[118.778279,32.0151174],[118.7788691,32.0153266],[118.7792607,32.0156587],[118.7794431,32.0160226],[118.7796148,32.0163728],[118.7798347,32.0167867],[118.7798422,32.0168331],[118.779883,32.0169459],[118.7799412,32.0172775],[118.7800651,32.017751],[118.7802041,32.0181599],[118.7802743,32.0184969],[118.7805206,32.0187739],[118.7807405,32.0191105],[118.7809283,32.0194607],[118.7812233,32.0197609],[118.7814647,32.0198973],[118.781771,32.0199706],[118.7820231,32.0199978],[118.7821036,32.0200069]]]}},{"type":"Feature","id":"QH-R06","properties":{"name":"熙南里文化街区","leisure":"park","district_name":"秦淮区","source_date":"2026-09-14","osm_id":"relation/14290821","label":"熙南里文化街区","category":"research","kind":"park","unit_id":"QH-R06","district":"秦淮区","research_type":"商业文旅","story":"熙南里文化街区：文化空间与持续运营","study_question":"比较文化展示、日常消费和公共活动的时段组织及运营条件。","case_status":"预设研究情景，非官方更新项目","boundary_source":"OSM 用地轮廓选作研究单元，不是地籍或官方更新单元","source_url":"https://www.openstreetmap.org/relation/14290821"},"geometry":{"type":"Polygon","coordinates":[[[118.7752406,32.0267006],[118.7767095,32.0262675],[118.7770752,32.0270758],[118.776469,32.0272316],[118.7765542,32.0274823],[118.7764695,32.0275037],[118.7755953,32.027725],[118.7752406,32.0267006]]]}}]}